{
  "type": "FeatureCollection",
  "features": [
    {
      "type": "Feature",
      "properties": {
        "norad_id": 31979,
        "name": "FENGYUN 1C DEB",
        "group": "fengyun-1c-debris",
        "lat": 73.86647778220382,
        "lon": -51.76884110007376,
        "alt_km": 1145.1673123422797,
        "timestamp": "2025-12-27T03:58:44.436034+00:00",
        "meta_object_name": "FENGYUN 1C DEB",
        "meta_object_id": "1999-025CPG",
        "meta_epoch": "2025-12-24T00:03:02.329056",
        "meta_mean_motion": 13.69365262,
        "meta_eccentricity": 0.026836,
        "meta_inclination": 99.3762,
        "meta_ra_of_asc_node": 90.3171,
        "meta_arg_of_pericenter": 251.8251,
        "meta_mean_anomaly": 105.351,
        "meta_ephemeris_type": 0,
        "meta_classification_type": "U",
        "meta_norad_cat_id": 31979,
        "meta_element_set_no": 999,
        "meta_rev_at_epoch": 58066,
        "meta_bstar": 0.0034261575,
        "meta_mean_motion_dot": 3.79e-05,
        "meta_mean_motion_ddot": 0,
        "tle_line1": "1 31979U 99025CPG 25358.00211029  .00003790  00000+0  34262-2 0  9999",
        "tle_line2": "2 31979  99.3762  90.3171 0268360 251.8251 105.3510 13.69365262580660"
      },
      "geometry": {
        "type": "Point",
        "coordinates": [
          -51.76884110007376,
          73.86647778220382
        ]
      }
    },
    {
      "type": "Feature",
      "properties": {
        "norad_id": 31980,
        "name": "FENGYUN 1C DEB",
        "group": "fengyun-1c-debris",
        "lat": 11.330126789677573,
        "lon": 81.23312320505438,
        "alt_km": 990.4710334254214,
        "timestamp": "2025-12-27T03:58:44.436045+00:00",
        "meta_object_name": "FENGYUN 1C DEB",
        "meta_object_id": "1999-025CPH",
        "meta_epoch": "2025-12-26T09:53:53.856960",
        "meta_mean_motion": 13.32161651,
        "meta_eccentricity": 0.0427985,
        "meta_inclination": 97.6112,
        "meta_ra_of_asc_node": 82.2075,
        "meta_arg_of_pericenter": 78.0052,
        "meta_mean_anomaly": 286.8706,
        "meta_ephemeris_type": 0,
        "meta_classification_type": "U",
        "meta_norad_cat_id": 31980,
        "meta_element_set_no": 999,
        "meta_rev_at_epoch": 89852,
        "meta_bstar": 0.00048346,
        "meta_mean_motion_dot": 3.65e-06,
        "meta_mean_motion_ddot": 0,
        "tle_line1": "1 31980U 99025CPH 25360.41242890  .00000365  00000+0  48346-3 0  9993",
        "tle_line2": "2 31980  97.6112  82.2075 0427985  78.0052 286.8706 13.32161651898528"
      },
      "geometry": {
        "type": "Point",
        "coordinates": [
          81.23312320505438,
          11.330126789677573
        ]
      }
    },
    {
      "type": "Feature",
      "properties": {
        "norad_id": 31984,
        "name": "FENGYUN 1C DEB",
        "group": "fengyun-1c-debris",
        "lat": 38.55936386206988,
        "lon": -1.7980148676482999,
        "alt_km": 849.7540491280215,
        "timestamp": "2025-12-27T03:58:44.436054+00:00",
        "meta_object_name": "FENGYUN 1C DEB",
        "meta_object_id": "1999-025CPM",
        "meta_epoch": "2025-12-18T07:09:32.915232",
        "meta_mean_motion": 14.22968839,
        "meta_eccentricity": 0.00628019,
        "meta_inclination": 98.5578,
        "meta_ra_of_asc_node": 356.4784,
        "meta_arg_of_pericenter": 210.9858,
        "meta_mean_anomaly": 148.7609,
        "meta_ephemeris_type": 0,
        "meta_classification_type": "U",
        "meta_norad_cat_id": 31984,
        "meta_element_set_no": 999,
        "meta_rev_at_epoch": 94452,
        "meta_bstar": 0.00030022048,
        "meta_mean_motion_dot": 6.47e-06,
        "meta_mean_motion_ddot": 0,
        "tle_line1": "1 31984U 99025CPM 25352.29829763  .00000647  00000+0  30022-3 0  9999",
        "tle_line2": "2 31984  98.5578 356.4784 0062801 210.9858 148.7609 14.22968839944527"
      },
      "geometry": {
        "type": "Point",
        "coordinates": [
          -1.7980148676482999,
          38.55936386206988
        ]
      }
    },
    {
      "type": "Feature",
      "properties": {
        "norad_id": 31985,
        "name": "FENGYUN 1C DEB",
        "group": "fengyun-1c-debris",
        "lat": 6.223200340016805,
        "lon": 82.3455565765138,
        "alt_km": 723.4351155356662,
        "timestamp": "2025-12-27T03:58:44.436068+00:00",
        "meta_object_name": "FENGYUN 1C DEB",
        "meta_object_id": "1999-025CPN",
        "meta_epoch": "2025-12-23T13:05:30.625440",
        "meta_mean_motion": 14.22990386,
        "meta_eccentricity": 0.01508831,
        "meta_inclination": 98.2195,
        "meta_ra_of_asc_node": 258.061,
        "meta_arg_of_pericenter": 214.7786,
        "meta_mean_anomaly": 144.346,
        "meta_ephemeris_type": 0,
        "meta_classification_type": "U",
        "meta_norad_cat_id": 31985,
        "meta_element_set_no": 999,
        "meta_rev_at_epoch": 95764,
        "meta_bstar": 0.00026019142,
        "meta_mean_motion_dot": 6.17e-06,
        "meta_mean_motion_ddot": 0,
        "tle_line1": "1 31985U 99025CPN 25357.54549335  .00000617  00000+0  26019-3 0  9995",
        "tle_line2": "2 31985  98.2195 258.0610 0150883 214.7786 144.3460 14.22990386957641"
      },
      "geometry": {
        "type": "Point",
        "coordinates": [
          82.3455565765138,
          6.223200340016805
        ]
      }
    },
    {
      "type": "Feature",
      "properties": {
        "norad_id": 31987,
        "name": "FENGYUN 1C DEB",
        "group": "fengyun-1c-debris",
        "lat": 17.23069557667123,
        "lon": -27.14368592756518,
        "alt_km": 746.9446650142536,
        "timestamp": "2025-12-27T03:58:44.436078+00:00",
        "meta_object_name": "FENGYUN 1C DEB",
        "meta_object_id": "1999-025CPQ",
        "meta_epoch": "2025-12-26T17:04:42.726432",
        "meta_mean_motion": 14.45000996,
        "meta_eccentricity": 0.005225,
        "meta_inclination": 99.0399,
        "meta_ra_of_asc_node": 335.2034,
        "meta_arg_of_pericenter": 116.1281,
        "meta_mean_anomaly": 60.6976,
        "meta_ephemeris_type": 0,
        "meta_classification_type": "U",
        "meta_norad_cat_id": 31987,
        "meta_element_set_no": 999,
        "meta_rev_at_epoch": 96571,
        "meta_bstar": 0.0010398,
        "meta_mean_motion_dot": 3.64e-05,
        "meta_mean_motion_ddot": 0,
        "tle_line1": "1 31987U 99025CPQ 25360.71160563  .00003640  00000+0  10398-2 0  9993",
        "tle_line2": "2 31987  99.0399 335.2034 0052250 116.1281  60.6976 14.45000996965713"
      },
      "geometry": {
        "type": "Point",
        "coordinates": [
          -27.14368592756518,
          17.23069557667123
        ]
      }
    },
    {
      "type": "Feature",
      "properties": {
        "norad_id": 31989,
        "name": "FENGYUN 1C DEB",
        "group": "fengyun-1c-debris",
        "lat": 9.846744310488145,
        "lon": -116.12220413464986,
        "alt_km": 916.1243199755072,
        "timestamp": "2025-12-27T03:58:44.436087+00:00",
        "meta_object_name": "FENGYUN 1C DEB",
        "meta_object_id": "1999-025CPS",
        "meta_epoch": "2025-12-26T15:49:47.629056",
        "meta_mean_motion": 13.93609535,
        "meta_eccentricity": 0.0115398,
        "meta_inclination": 99.2116,
        "meta_ra_of_asc_node": 61.7596,
        "meta_arg_of_pericenter": 261.0092,
        "meta_mean_anomaly": 251.9301,
        "meta_ephemeris_type": 0,
        "meta_classification_type": "U",
        "meta_norad_cat_id": 31989,
        "meta_element_set_no": 999,
        "meta_rev_at_epoch": 93911,
        "meta_bstar": 0.0005132,
        "meta_mean_motion_dot": 6.66e-06,
        "meta_mean_motion_ddot": 0,
        "tle_line1": "1 31989U 99025CPS 25360.65957904  .00000666  00000+0  51320-3 0  9997",
        "tle_line2": "2 31989  99.2116  61.7596 0115398 261.0092 251.9301 13.93609535939119"
      },
      "geometry": {
        "type": "Point",
        "coordinates": [
          -116.12220413464986,
          9.846744310488145
        ]
      }
    },
    {
      "type": "Feature",
      "properties": {
        "norad_id": 31990,
        "name": "FENGYUN 1C DEB",
        "group": "fengyun-1c-debris",
        "lat": -2.069212538546038,
        "lon": -157.65563045773948,
        "alt_km": 887.57039812127,
        "timestamp": "2025-12-27T03:58:44.436096+00:00",
        "meta_object_name": "FENGYUN 1C DEB",
        "meta_object_id": "1999-025CPT",
        "meta_epoch": "2025-12-26T07:44:19.801824",
        "meta_mean_motion": 13.57209467,
        "meta_eccentricity": 0.0260523,
        "meta_inclination": 99.1596,
        "meta_ra_of_asc_node": 21.8922,
        "meta_arg_of_pericenter": 149.8306,
        "meta_mean_anomaly": 232.1284,
        "meta_ephemeris_type": 0,
        "meta_classification_type": "U",
        "meta_norad_cat_id": 31990,
        "meta_element_set_no": 999,
        "meta_rev_at_epoch": 62956,
        "meta_bstar": 0.00028173,
        "meta_mean_motion_dot": 2.12e-06,
        "meta_mean_motion_ddot": 0,
        "tle_line1": "1 31990U 99025CPT 25360.32245141  .00000212  00000+0  28173-3 0  9993",
        "tle_line2": "2 31990  99.1596  21.8922 0260523 149.8306 232.1284 13.57209467629560"
      },
      "geometry": {
        "type": "Point",
        "coordinates": [
          -157.65563045773948,
          -2.069212538546038
        ]
      }
    }
  ]
}